[{"OBJECT_NAME":"SL-8 R/B","OBJECT_ID":"1990-078B","EPOCH":"2026-03-06T11:37:39.218880","MEAN_MOTION":14.88931597,"ECCENTRICITY":0.03629459,"INCLINATION":82.8999,"RA_OF_ASC_NODE":254.1941,"ARG_OF_PERICENTER":24.771,"MEAN_ANOMALY":337.0453,"EPHEMERIS_TYPE":0,"CLASSIFICATION_TYPE":"U","NORAD_CAT_ID":20775,"ELEMENT_SET_NO":999,"REV_AT_EPOCH":80882,"BSTAR":0.00049449579,"MEAN_MOTION_DOT":0.000168,"MEAN_MOTION_DDOT":0},{"OBJECT_NAME":"SL-8 R/B","OBJECT_ID":"1991-006B","EPOCH":"2026-03-06T13:31:33.637728","MEAN_MOTION":13.77493784,"ECCENTRICITY":0.00232614,"INCLINATION":82.9466,"RA_OF_ASC_NODE":172.3698,"ARG_OF_PERICENTER":46.8205,"MEAN_ANOMALY":324.6837,"EPHEMERIS_TYPE":0,"CLASSIFICATION_TYPE":"U","NORAD_CAT_ID":21088,"ELEMENT_SET_NO":999,"REV_AT_EPOCH":76364,"BSTAR":6.8619974e-5,"MEAN_MOTION_DOT":8.4e-7,"MEAN_MOTION_DDOT":0},{"OBJECT_NAME":"OKEAN-3","OBJECT_ID":"1991-039A","EPOCH":"2026-03-06T14:53:04.752960","MEAN_MOTION":15.04777037,"ECCENTRICITY":0.00141149,"INCLINATION":82.5192,"RA_OF_ASC_NODE":339.8166,"ARG_OF_PERICENTER":349.6073,"MEAN_ANOMALY":10.486,"EPHEMERIS_TYPE":0,"CLASSIFICATION_TYPE":"U","NORAD_CAT_ID":21397,"ELEMENT_SET_NO":999,"REV_AT_EPOCH":86457,"BSTAR":0.00031051406,"MEAN_MOTION_DOT":4.415e-5,"MEAN_MOTION_DDOT":0},{"OBJECT_NAME":"COSMOS 2151","OBJECT_ID":"1991-042A","EPOCH":"2026-03-06T13:09:29.397888","MEAN_MOTION":15.00091439,"ECCENTRICITY":0.00140262,"INCLINATION":82.4929,"RA_OF_ASC_NODE":86.7072,"ARG_OF_PERICENTER":73.1241,"MEAN_ANOMALY":287.152,"EPHEMERIS_TYPE":0,"CLASSIFICATION_TYPE":"U","NORAD_CAT_ID":21422,"ELEMENT_SET_NO":999,"REV_AT_EPOCH":86272,"BSTAR":0.00019803925,"MEAN_MOTION_DOT":2.499e-5,"MEAN_MOTION_DDOT":0},{"OBJECT_NAME":"SL-14 R/B","OBJECT_ID":"1991-042B","EPOCH":"2026-03-06T10:46:31.295712","MEAN_MOTION":14.81825638,"ECCENTRICITY":0.00156542,"INCLINATION":82.4916,"RA_OF_ASC_NODE":223.2212,"ARG_OF_PERICENTER":250.1694,"MEAN_ANOMALY":109.7833,"EPHEMERIS_TYPE":0,"CLASSIFICATION_TYPE":"U","NORAD_CAT_ID":21423,"ELEMENT_SET_NO":999,"REV_AT_EPOCH":85259,"BSTAR":8.3986573e-5,"MEAN_MOTION_DOT":6.87e-6,"MEAN_MOTION_DDOT":0},{"OBJECT_NAME":"ERS-1","OBJECT_ID":"1991-050A","EPOCH":"2026-03-06T00:19:04.274688","MEAN_MOTION":14.39445646,"ECCENTRICITY":0.00314254,"INCLINATION":98.7885,"RA_OF_ASC_NODE":83.1554,"ARG_OF_PERICENTER":211.5317,"MEAN_ANOMALY":148.3988,"EPHEMERIS_TYPE":0,"CLASSIFICATION_TYPE":"U","NORAD_CAT_ID":21574,"ELEMENT_SET_NO":999,"REV_AT_EPOCH":81520,"BSTAR":0.00012940215,"MEAN_MOTION_DOT":3.59e-6,"MEAN_MOTION_DDOT":0},{"OBJECT_NAME":"ARIANE 40 R/B","OBJECT_ID":"1991-050F","EPOCH":"2026-03-06T10:04:19.617600","MEAN_MOTION":14.42890875,"ECCENTRICITY":0.00043708,"INCLINATION":98.2019,"RA_OF_ASC_NODE":117.7787,"ARG_OF_PERICENTER":88.3227,"MEAN_ANOMALY":271.8464,"EPHEMERIS_TYPE":0,"CLASSIFICATION_TYPE":"U","NORAD_CAT_ID":21610,"ELEMENT_SET_NO":999,"REV_AT_EPOCH":81852,"BSTAR":0.00013545838,"MEAN_MOTION_DOT":4.11e-6,"MEAN_MOTION_DDOT":0},{"OBJECT_NAME":"INTERCOSMOS 25","OBJECT_ID":"1991-086A","EPOCH":"2026-03-06T14:28:37.702560","MEAN_MOTION":12.11989532,"ECCENTRICITY":0.1487002,"INCLINATION":82.6053,"RA_OF_ASC_NODE":311.8741,"ARG_OF_PERICENTER":123.5798,"MEAN_ANOMALY":251.6256,"EPHEMERIS_TYPE":0,"CLASSIFICATION_TYPE":"U","NORAD_CAT_ID":21819,"ELEMENT_SET_NO":999,"REV_AT_EPOCH":49631,"BSTAR":0.00029674124,"MEAN_MOTION_DOT":1.549e-5,"MEAN_MOTION_DDOT":0},{"OBJECT_NAME":"SL-8 R/B","OBJECT_ID":"1992-008B","EPOCH":"2026-03-06T02:19:38.830080","MEAN_MOTION":13.75969768,"ECCENTRICITY":0.00353691,"INCLINATION":82.9226,"RA_OF_ASC_NODE":270.4516,"ARG_OF_PERICENTER":143.1138,"MEAN_ANOMALY":332.5712,"EPHEMERIS_TYPE":0,"CLASSIFICATION_TYPE":"U","NORAD_CAT_ID":21876,"ELEMENT_SET_NO":999,"REV_AT_EPOCH":70892,"BSTAR":-8.602894e-6,"MEAN_MOTION_DOT":7.0e-8,"MEAN_MOTION_DDOT":0},{"OBJECT_NAME":"SL-8 R/B","OBJECT_ID":"1992-020B","EPOCH":"2026-03-06T08:21:16.283232","MEAN_MOTION":13.75549099,"ECCENTRICITY":0.00277857,"INCLINATION":82.9341,"RA_OF_ASC_NODE":156.2421,"ARG_OF_PERICENTER":308.5302,"MEAN_ANOMALY":121.9339,"EPHEMERIS_TYPE":0,"CLASSIFICATION_TYPE":"U","NORAD_CAT_ID":21938,"ELEMENT_SET_NO":999,"REV_AT_EPOCH":70067,"BSTAR":9.4352703e-5,"MEAN_MOTION_DOT":1.06e-6,"MEAN_MOTION_DDOT":0},{"OBJECT_NAME":"USA 81","OBJECT_ID":"1992-023A","EPOCH":"2026-03-06T05:39:31.062816","MEAN_MOTION":14.32366676,"ECCENTRICITY":0.00025538,"INCLINATION":85.0091,"RA_OF_ASC_NODE":133.4337,"ARG_OF_PERICENTER":80.2167,"MEAN_ANOMALY":279.9314,"EPHEMERIS_TYPE":0,"CLASSIFICATION_TYPE":"U","NORAD_CAT_ID":21949,"ELEMENT_SET_NO":999,"REV_AT_EPOCH":9429,"BSTAR":7.967619e-5,"MEAN_MOTION_DOT":2.35e-6,"MEAN_MOTION_DDOT":0},{"OBJECT_NAME":"COSMOS 2219","OBJECT_ID":"1992-076A","EPOCH":"2026-03-06T08:06:24.911712","MEAN_MOTION":14.14091162,"ECCENTRICITY":0.00192105,"INCLINATION":71.0627,"RA_OF_ASC_NODE":25.0737,"ARG_OF_PERICENTER":211.5192,"MEAN_ANOMALY":148.4782,"EPHEMERIS_TYPE":0,"CLASSIFICATION_TYPE":"U","NORAD_CAT_ID":22219,"ELEMENT_SET_NO":999,"REV_AT_EPOCH":71790,"BSTAR":0.00015719728,"MEAN_MOTION_DOT":2.53e-6,"MEAN_MOTION_DDOT":0},{"OBJECT_NAME":"SL-16 R/B","OBJECT_ID":"1992-076B","EPOCH":"2026-03-06T09:05:30.759072","MEAN_MOTION":14.16860314,"ECCENTRICITY":0.00105052,"INCLINATION":71.0003,"RA_OF_ASC_NODE":195.347,"ARG_OF_PERICENTER":102.4742,"MEAN_ANOMALY":320.9107,"EPHEMERIS_TYPE":0,"CLASSIFICATION_TYPE":"U","NORAD_CAT_ID":22220,"ELEMENT_SET_NO":999,"REV_AT_EPOCH":72136,"BSTAR":-1.0634165e-5,"MEAN_MOTION_DOT":-6.9e-7,"MEAN_MOTION_DDOT":0},{"OBJECT_NAME":"COSMOS 2221","OBJECT_ID":"1992-080A","EPOCH":"2026-03-06T13:27:48.109536","MEAN_MOTION":14.96186793,"ECCENTRICITY":0.00137569,"INCLINATION":82.5011,"RA_OF_ASC_NODE":282.0787,"ARG_OF_PERICENTER":197.9371,"MEAN_ANOMALY":162.1367,"EPHEMERIS_TYPE":0,"CLASSIFICATION_TYPE":"U","NORAD_CAT_ID":22236,"ELEMENT_SET_NO":999,"REV_AT_EPOCH":78032,"BSTAR":0.00020184232,"MEAN_MOTION_DOT":2.303e-5,"MEAN_MOTION_DDOT":0},{"OBJECT_NAME":"SL-16 R/B","OBJECT_ID":"1992-093B","EPOCH":"2026-03-06T13:25:27.217920","MEAN_MOTION":14.15448871,"ECCENTRICITY":0.00063708,"INCLINATION":71.024,"RA_OF_ASC_NODE":10.8365,"ARG_OF_PERICENTER":296.9993,"MEAN_ANOMALY":63.0479,"EPHEMERIS_TYPE":0,"CLASSIFICATION_TYPE":"U","NORAD_CAT_ID":22285,"ELEMENT_SET_NO":999,"REV_AT_EPOCH":71271,"BSTAR":-7.40944e-5,"MEAN_MOTION_DOT":-1.92e-6,"MEAN_MOTION_DDOT":0},{"OBJECT_NAME":"COSMOS 2228","OBJECT_ID":"1992-094A","EPOCH":"2026-03-06T13:54:20.808000","MEAN_MOTION":14.97172739,"ECCENTRICITY":0.00169784,"INCLINATION":82.5149,"RA_OF_ASC_NODE":240.2891,"ARG_OF_PERICENTER":315.784,"MEAN_ANOMALY":44.2024,"EPHEMERIS_TYPE":0,"CLASSIFICATION_TYPE":"U","NORAD_CAT_ID":22286,"ELEMENT_SET_NO":999,"REV_AT_EPOCH":77559,"BSTAR":0.00028022042,"MEAN_MOTION_DOT":3.272e-5,"MEAN_MOTION_DDOT":0},{"OBJECT_NAME":"SL-16 R/B","OBJECT_ID":"1993-016B","EPOCH":"2026-03-05T21:25:28.613856","MEAN_MOTION":14.15306792,"ECCENTRICITY":0.00115243,"INCLINATION":71.0063,"RA_OF_ASC_NODE":223.1556,"ARG_OF_PERICENTER":319.4689,"MEAN_ANOMALY":40.5575,"EPHEMERIS_TYPE":0,"CLASSIFICATION_TYPE":"U","NORAD_CAT_ID":22566,"ELEMENT_SET_NO":999,"REV_AT_EPOCH":70163,"BSTAR":0.0001609304,"MEAN_MOTION_DOT":2.66e-6,"MEAN_MOTION_DDOT":0}]
