SL-8 R/B                
1 20775U 90078B   26065.48448170  .00016800  00000+0  49450-3 0  9999
2 20775  82.8999 254.1941 0362945  24.7710 337.0453 14.88931597808820
SL-8 R/B                
1 21088U 91006B   26065.56358377  .00000084  00000+0  68620-4 0  9995
2 21088  82.9466 172.3698 0023261  46.8205 324.6837 13.77493784763643
OKEAN-3                 
1 21397U 91039A   26065.62019390  .00004415  00000+0  31051-3 0  9999
2 21397  82.5192 339.8166 0014114 349.6073  10.4860 15.04777037864570
COSMOS 2151             
1 21422U 91042A   26065.54825692  .00002499  00000+0  19804-3 0  9995
2 21422  82.4929  86.7072 0014026  73.1241 287.1520 15.00091439862720
SL-14 R/B               
1 21423U 91042B   26065.44897333  .00000687  00000+0  83987-4 0  9997
2 21423  82.4916 223.2212 0015654 250.1694 109.7833 14.81825638852592
ERS-1                   
1 21574U 91050A   26065.01324392  .00000359  00000+0  12940-3 0  9992
2 21574  98.7885  83.1554 0031425 211.5317 148.3988 14.39445646815200
ARIANE 40 R/B           
1 21610U 91050F   26065.41967150  .00000411  00000+0  13546-3 0  9994
2 21610  98.2019 117.7787 0004370  88.3227 271.8464 14.42890875818527
INTERCOSMOS 25          
1 21819U 91086A   26065.60321415  .00001549  00000+0  29674-3 0  9995
2 21819  82.6053 311.8741 1487002 123.5798 251.6256 12.11989532496310
SL-8 R/B                
1 21876U 92008B   26065.09697720  .00000007  00000+0 -86029-5 0  9999
2 21876  82.9226 270.4516 0035369 143.1138 332.5712 13.75969768708927
SL-8 R/B                
1 21938U 92020B   26065.34810513  .00000106  00000+0  94353-4 0  9994
2 21938  82.9341 156.2421 0027785 308.5302 121.9339 13.75549099700673
USA 81                  
1 21949U 92023A   26065.23577619  .00000235  00000+0  79676-4 0  9998
2 21949  85.0091 133.4337 0002553  80.2167 279.9314 14.32366676 94296
COSMOS 2219             
1 22219U 92076A   26065.33778833  .00000253  00000+0  15720-3 0  9998
2 22219  71.0627  25.0737 0019210 211.5192 148.4782 14.14091162717906
SL-16 R/B               
1 22220U 92076B   26065.37882823 -.00000069  00000+0 -10634-4 0  9996
2 22220  71.0003 195.3470 0010505 102.4742 320.9107 14.16860314721366
COSMOS 2221             
1 22236U 92080A   26065.56097349  .00002303  00000+0  20184-3 0  9991
2 22236  82.5011 282.0787 0013756 197.9371 162.1367 14.96186793780327
SL-16 R/B               
1 22285U 92093B   26065.55934280 -.00000192  00000+0 -74094-4 0  9998
2 22285  71.0240  10.8365 0006370 296.9993  63.0479 14.15448871712711
COSMOS 2228             
1 22286U 92094A   26065.57940750  .00003272  00000+0  28022-3 0  9990
2 22286  82.5149 240.2891 0016978 315.7840  44.2024 14.97172739775595
SL-16 R/B               
1 22566U 93016B   26064.89269229  .00000266  00000+0  16093-3 0  9990
2 22566  71.0063 223.1556 0011524 319.4689  40.5575 14.15306792701638
